{"type": "FeatureCollection", "features": [{"type": "Feature", "geometry": {"type": "Polygon", "coordinates": [[[-59.79761718461995, -3.5699870937327995], [-59.789351608556565, -3.5385014772411636], [-59.81680047653596, -3.521090811055015], [-59.85097473894013, -3.5137058116141526], [-59.85708776036764, -3.552259515250261], [-59.87491925877614, -3.5699870937327995], [-59.855421867172765, -3.586504329962146], [-59.843474349800495, -3.6031845516739853], [-59.81870852228289, -3.61301101542708], [-59.810048894239095, -3.586435251961802], [-59.79761718461995, -3.5699870937327995]]]}, "properties": {"region": "brazil", "time_step": 2404, "score": 0.665}}, {"type": "Feature", "geometry": {"type": "Polygon", "coordinates": [[[-60.233390634217734, -2.5568396150484793], [-60.23198502486357, -2.5320019411796344], [-60.25472503435357, -2.5216120929796557], [-60.276920640479794, -2.5237560855449908], [-60.31029520314133, -2.5247816140228476], [-60.296881430358155, -2.5568396150484793], [-60.29911278574929, -2.5807731142728856], [-60.27852046453694, -2.5948468967150333], [-60.25398913537222, -2.5943320012972], [-60.23659404660138, -2.5783286386123017], [-60.233390634217734, -2.5568396150484793]]]}, "properties": {"region": "brazil", "time_step": null, "score": 0.671}}, {"type": "Feature", "geometry": {"type": "MultiPolygon", "coordinates": [[[[-60.28359902211147, -2.4458376526205097], [-60.29522835091748, -2.4289685063376836], [-60.30872809202241, -2.4159267331988534], [-60.32376399853089, -2.429472810114514], [-60.33555238911867, -2.4334096702492616], [-60.34091999214202, -2.4458376526205097], [-60.33296167533175, -2.4563833712476733], [-60.325013205595, -2.466047159142221], [-60.31276081662792, -2.463337121913842], [-60.30046515801689, -2.458902035834652], [-60.28359902211147, -2.4458376526205097]]], [[[-60.371714697851644, -2.547312681978174], [-60.37915088105166, -2.535118431553127], [-60.38913994189924, -2.526400176365472], [-60.40720412268106, -2.5126293557861077], [-60.42038962439259, -2.5295452315645317], [-60.425321443209135, -2.547312681978174], [-60.41204762299078, -2.559019313604714], [-60.40581753643584, -2.5777285345104435], [-60.38983197512386, -2.566095328328283], [-60.37617809937263, -2.5616667847195065], [-60.371714697851644, -2.547312681978174]]], [[[-60.22614089148313, -2.437245649624571], [-60.22930461979343, -2.41901332314975], [-60.24375670620558, -2.4044912237177654], [-60.26459515418275, -2.4058659272517735], [-60.27152502710051, -2.4248030546410924], [-60.27130953986538, -2.437245649624571], [-60.27303644535044, -2.450786354244229], [-60.261199247598185, -2.4581738462082816], [-60.24797850691673, -2.4570067089854493], [-60.22478644856282, -2.458760619647248], [-60.22614089148313, -2.437245649624571]]]]}, "properties": {"region": "brazil", "time_step": 2304, "score": 0.787}}, {"type": "Feature", "geometry": {"type": "Polygon", "coordinates": [[[-60.08866946047502, -2.502542892311348], [-60.096186274014194, -2.481432876057239], [-60.11063865424655, -2.457599281166927], [-60.13651935360807, -2.4678339011002137], [-60.16414992580992, -2.4742744251773106], [-60.18462272354171, -2.502542892311348], [-60.15875107159213, -2.526888862253656], [-60.13603582999135, -2.5357637508474453], [-60.10578158111581, -2.5624350374691143], [-60.08852178444085, -2.529221486195947], [-60.08866946047502, -2.502542892311348]]]}, "properties": {"region": "brazil", "time_step": null, "score": 0.428}}, {"type": "Feature", "geometry": {"type": "Polygon", "coordinates": [[[-60.42618104477562, -2.847064749956292], [-60.444703647555, -2.829833053091159], [-60.455819616887574, -2.8082815464825153], [-60.48786541045257, -2.7872211421393684], [-60.50571204332458, -2.8199712527294447], [-60.53044188601574, -2.847064749956292], [-60.515381337391894, -2.881183400538833], [-60.47690070399991, -2.873162461233907], [-60.45204345668983, -2.8974697795043993], [-60.42668129512641, -2.8773904523155007], [-60.42618104477562, -2.847064749956292]]]}, "properties": {"region": "brazil", "time_step": 2311, "score": 0.601}}, {"type": "Feature", "geometry": {"type": "MultiPolygon", "coordinates": [[[[-60.03185148878631, -3.30542581516557], [-60.04406404586294, -3.294541801078129], [-60.04985560862252, -3.2771449889827955], [-60.069679262896905, -3.2726957069414255], [-60.08104397136617, -3.289442340692444], [-60.07956160286996, -3.30542581516557], [-60.07870439865796, -3.31970949056882], [-60.06513507403729, -3.3241703481466645], [-60.0476627601953, -3.340455534852338], [-60.02978995541144, -3.3266805630146243], [-60.03185148878631, -3.30542581516557]]], [[[-60.05362178390743, -3.3706328610023046], [-60.06532643409859, -3.3596794958483485], [-60.072966124157325, -3.347746209950659], [-60.09199690833607, -3.3349487808874763], [-60.10763395648093, -3.350848011890948], [-60.10179601133158, -3.3706328610023046], [-60.0977350307304, -3.383225719574327], [-60.08920430047579, -3.3977221778797535], [-60.07486515030524, -3.38767491054183], [-60.05448053590108, -3.389466232451167], [-60.05362178390743, -3.3706328610023046]]], [[[-60.093656356805774, -3.2190168973154627], [-60.10607151426971, -3.2078869705433153], [-60.111971366696935, -3.1900276496111095], [-60.13272795136666, -3.1841239460938353], [-60.13739818234848, -3.2073866674676736], [-60.14901592344248, -3.2190168973154627], [-60.14512043687579, -3.2362576734894293], [-60.132844971768186, -3.2542700003003944], [-60.11017297017023, -3.253541040403367], [-60.095060055063286, -3.2381471174964713], [-60.093656356805774, -3.2190168973154627]]]]}, "properties": {"region": "brazil", "time_step": 2307, "score": 0.987}}, {"type": "Feature", "geometry": {"type": "Polygon", "coordinates": [[[-59.78875879224281, -3.0742798993025953], [-59.7917302331739, -3.053634395873554], [-59.808029684705176, -3.0369886969902704], [-59.83504939885873, -3.028412972185357], [-59.84872036597168, -3.0535196475773754], [-59.855109119461545, -3.0742798993025953], [-59.84408137079106, -3.0916697237418815], [-59.83552594469853, -3.121613483705703], [-59.80924508226684, -3.1078304925482603], [-59.771884603865075, -3.109344096419526], [-59.78875879224281, -3.0742798993025953]]]}, "properties": {"region": "brazil", "time_step": 2109, "score": 0.54}}, {"type": "Feature", "geometry": {"type": "MultiPolygon", "coordinates": [[[[-59.8750102564054, -3.3537266539776365], [-59.88525860328832, -3.342996226922328], [-59.89061372336983, -3.324753200458212], [-59.90740607643587, -3.3310185589152823], [-59.92033807121659, -3.3389703557232524], [-59.934921536618496, -3.3537266539776365], [-59.91409454004526, -3.36394676131112], [-59.909404884691, -3.38258644830078], [-59.890699265943425, -3.3824368345265756], [-59.88584832196869, -3.364028625332098], [-59.8750102564054, -3.3537266539776365]]], [[[-59.68736244078162, -3.222678826810794], [-59.68947069293616, -3.2107122806894997], [-59.697346978612195, -3.196228438744328], [-59.7118889378657, -3.2043736662844684], [-59.72227004547875, -3.2108152484188546], [-59.73216021593072, -3.222678826810794], [-59.73435716026727, -3.2433242081374742], [-59.71145599731465, -3.239651533330576], [-59.69553138523586, -3.254717036721819], [-59.67784924129696, -3.2430888517851266], [-59.68736244078162, -3.222678826810794]]], [[[-59.9301585706968, -3.282057873556065], [-59.94468583200736, -3.2723386651317847], [-59.95242895793, -3.264717537161713], [-59.96810917028595, -3.2511394785231023], [-59.97531718061791, -3.2695221045246226], [-59.9830667219628, -3.282057873556065], [-59.979602415548804, -3.2977070480072985], [-59.96885137826069, -3.315260549854032], [-59.94702246281407, -3.316037690962535], [-59.94206410503626, -3.293681878121666], [-59.9301585706968, -3.282057873556065]]]]}, "properties": {"region": "brazil", "time_step": null, "score": 0.63}}, {"type": "Feature", "geometry": {"type": "Polygon", "coordinates": [[[-73.43604888817565, 3.342155228152946], [-73.44501600679001, 3.373514478297717], [-73.47110318485232, 3.394707065035875], [-73.50390055422477, 3.390543315050277], [-73.52423194014271, 3.368349722484554], [-73.52204850514386, 3.342155228152946], [-73.51639043685633, 3.3216579194423863], [-73.49718137756298, 3.314446640650989], [-73.47163351758752, 3.2912355875983765], [-73.46453584480838, 3.324977970468304], [-73.43604888817565, 3.342155228152946]]]}, "properties": {"region": "colombia", "time_step": 2110, "score": 0.681}}, {"type": "Feature", "geometry": {"type": "MultiPolygon", "coordinates": [[[[-73.33851278457466, 2.8647598954061664], [-73.3280040653773, 2.8852442966230285], [-73.34848953290599, 2.888485425274778], [-73.36750073731646, 2.8995448363735368], [-73.37928252937976, 2.8815314790578905], [-73.38493180989104, 2.8647598954061664], [-73.37001279083051, 2.854723171033962], [-73.36175727916302, 2.8476515010441052], [-73.34679513350711, 2.8358195404022633], [-73.33319213442388, 2.8480448469898736], [-73.33851278457466, 2.8647598954061664]]], [[[-73.53949072677796, 2.9416576405661026], [-73.55157252449965, 2.955182215274835], [-73.56340172852204, 2.9625421119214943], [-73.57607304751143, 2.9597714790586473], [-73.59459796631532, 2.959392879122671], [-73.59628965753126, 2.9416576405661026], [-73.59955732870199, 2.9203192143238277], [-73.58145065148263, 2.9069932388619604], [-73.56511417746987, 2.926043545145705], [-73.54620283132026, 2.9242317554001964], [-73.53949072677796, 2.9416576405661026]]]]}, "properties": {"region": "colombia", "time_step": 2102, "score": 0.717}}, {"type": "Feature", "geometry": {"type": "Polygon", "coordinates": [[[-73.96343237384201, 2.558947884439761], [-73.96395123235959, 2.5800082706238223], [-73.98141300884059, 2.594419289942461], [-74.0061696905834, 2.599669710772026], [-74.03064054043519, 2.586340116735872], [-74.03086691283441, 2.558947884439761], [-74.04348672006928, 2.522222356317083], [-74.01027783901208, 2.5055824773202966], [-73.97869640646357, 2.515115636524286], [-73.95160231569994, 2.5289154851276736], [-73.96343237384201, 2.558947884439761]]]}, "properties": {"region": "colombia", "time_step": 2103, "score": 0.556}}, {"type": "Feature", "geometry": {"type": "Polygon", "coordinates": [[[-73.49516434541448, 3.2909000207771983], [-73.50433877984398, 3.311247550291084], [-73.52017471261132, 3.328355549398326], [-73.5483523567162, 3.34016636353403], [-73.57907569603111, 3.324852039285233], [-73.57758471765072, 3.2909000207771983], [-73.5615312058762, 3.2696948204988825], [-73.55080959212137, 3.2340710850669305], [-73.52342725727897, 3.2634547953336055], [-73.4919876473437, 3.2615788682328315], [-73.49516434541448, 3.2909000207771983]]]}, "properties": {"region": "colombia", "time_step": 2101, "score": 0.597}}, {"type": "Feature", "geometry": {"type": "Polygon", "coordinates": [[[-74.40006737970351, 3.575757544594603], [-74.40057821967733, 3.6065906926107387], [-74.42841847925676, 3.620685346972984], [-74.45261401710786, 3.605295950733669], [-74.49243352485237, 3.61166118221104], [-74.49494504224826, 3.575757544594603], [-74.46922722502526, 3.556714270720202], [-74.4517694180667, 3.548818547020041], [-74.43055310050605, 3.5373994308932692], [-74.40504289584744, 3.548168173689827], [-74.40006737970351, 3.575757544594603]]]}, "properties": {"region": "colombia", "time_step": 2105, "score": 0.615}}, {"type": "Feature", "geometry": {"type": "MultiPolygon", "coordinates": [[[[-73.57782499103018, 3.466447413709882], [-73.56949858191946, 3.4858934626021028], [-73.58534538514533, 3.5000507533059686], [-73.6039900480473, 3.4902264461833137], [-73.62023973863926, 3.4838669730947798], [-73.6158216820573, 3.466447413709882], [-73.62564868642254, 3.4450980237286744], [-73.60705167689004, 3.4332456565501572], [-73.58473021528324, 3.4309507759566498], [-73.56896234834694, 3.44661176832229], [-73.57782499103018, 3.466447413709882]]], [[[-73.29558597098544, 3.376550062779988], [-73.30879803665292, 3.3903034175541316], [-73.31649762068383, 3.411113325506878], [-73.33809908469253, 3.4084692702115227], [-73.35596153208209, 3.3970629932045235], [-73.36147383667905, 3.376550062779988], [-73.3455141346783, 3.3636276108762817], [-73.33799979415943, 3.344936440187569], [-73.3219945837508, 3.3589047127887466], [-73.29935254345406, 3.3559341554988866], [-73.29558597098544, 3.376550062779988]]], [[[-73.30298494401639, 3.455609005038978], [-73.31568614878167, 3.470990591896192], [-73.32980688337379, 3.4773073001809784], [-73.34718223324916, 3.4873865381610694], [-73.35395744063334, 3.4680331393137016], [-73.35358496650932, 3.455609005038978], [-73.35335455768677, 3.443622890864346], [-73.34406143856567, 3.4334362903371467], [-73.32607087075347, 3.422412445360748], [-73.30682481737777, 3.433789284062086], [-73.30298494401639, 3.455609005038978]]]]}, "properties": {"region": "colombia", "time_step": 2411, "score": 0.979}}, {"type": "Feature", "geometry": {"type": "MultiPolygon", "coordinates": [[[[-74.0631579650966, 3.712098294694281], [-74.07009859458441, 3.723007621349051], [-74.07719939277672, 3.736456934295362], [-74.09499281727419, 3.742502184739033], [-74.10372011398822, 3.725616431742538], [-74.11443742922263, 3.712098294694281], [-74.10717913385102, 3.696067032610489], [-74.09269874441256, 3.688754834928854], [-74.07625046482735, 3.684819155165488], [-74.06753912791662, 3.699329406656344], [-74.0631579650966, 3.712098294694281]]], [[[-73.83679835526486, 3.3277610796771104], [-73.85048907101437, 3.344135849021498], [-73.86320908658851, 3.3579775332106516], [-73.88299539514185, 3.358440622239625], [-73.89787700971414, 3.3458156631126137], [-73.89711828255741, 3.3277610796771104], [-73.88737020204633, 3.3173401388458434], [-73.88247616378858, 3.298679566902515], [-73.86580970655216, 3.305548511392125], [-73.85441671911492, 3.3142399137128176], [-73.83679835526486, 3.3277610796771104]]], [[[-73.79462533855897, 3.614986273595239], [-73.79880572719905, 3.6284485849990413], [-73.80959526662998, 3.6388067519557232], [-73.82503471309165, 3.6386835254329104], [-73.83562588120354, 3.6282753699634043], [-73.83630339406753, 3.614986273595239], [-73.83780876003438, 3.60011122292299], [-73.82862908708094, 3.580226676104287], [-73.80779845783997, 3.5856357864022304], [-73.78842370598203, 3.5939809822506157], [-73.79462533855897, 3.614986273595239]]]]}, "properties": {"region": "colombia", "time_step": 2307, "score": 0.723}}, {"type": "Feature", "geometry": {"type": "Polygon", "coordinates": [[[-74.5515854928607, 2.7442964602427127], [-74.5585604139247, 2.7740501629246936], [-74.58598307060645, 2.78593690837086], [-74.61278846292166, 2.785154526750603], [-74.62760839708048, 2.764709053796406], [-74.64359165383746, 2.7442964602427127], [-74.64765101106167, 2.7093220552592907], [-74.6167290137904, 2.6913106251986685], [-74.58927142115584, 2.712776514464884], [-74.57517543899247, 2.7266142798763484], [-74.5515854928607, 2.7442964602427127]]]}, "properties": {"region": "colombia", "time_step": 2302, "score": 0.883}}, {"type": "Feature", "geometry": {"type": "Polygon", "coordinates": [[[99.33556864550751, 18.2073548046686], [99.32394318124875, 18.223758257710283], [99.3124440804668, 18.241450353649984], [99.28772295601141, 18.249343053444072], [99.25472738733741, 18.24123956951317], [99.27171429733052, 18.2073548046686], [99.26741792480225, 18.182690254995485], [99.2860010460976, 18.160067062098904], [99.31188275741786, 18.174986830394005], [99.34353243778882, 18.17671892365855], [99.33556864550751, 18.2073548046686]]]}, "properties": {"region": "thailand", "time_step": 2203, "score": 0.787}}, {"type": "Feature", "geometry": {"type": "Polygon", "coordinates": [[[98.43752179245261, 18.301157371942168], [98.44091371840616, 18.326048672918283], [98.41696422210845, 18.332889644446237], [98.38763430310331, 18.35969330830688], [98.36968803876533, 18.328014556311203], [98.37781708320202, 18.301157371942168], [98.37752338936941, 18.27999290300883], [98.38885511170946, 18.246378698126666], [98.42008863607681, 18.25980914200434], [98.4518834176629, 18.268296117936615], [98.43752179245261, 18.301157371942168]]]}, "properties": {"region": "thailand", "time_step": 2308, "score": 0.761}}, {"type": "Feature", "geometry": {"type": "Polygon", "coordinates": [[[99.30989891391353, 18.005733797789283], [99.3111510724064, 18.040624054745578], [99.27976172345433, 18.056924815496153], [99.24949108817783, 18.04770621593273], [99.23370701971899, 18.027109938651478], [99.2271921864137, 18.005733797789283], [99.2226731973225, 17.97634111570957], [99.24624903501751, 17.953783366007656], [99.27728562730087, 17.96216342045037], [99.30326615470224, 17.976572268874882], [99.30989891391353, 18.005733797789283]]]}, "properties": {"region": "thailand", "time_step": 2112, "score": 0.569}}, {"type": "Feature", "geometry": {"type": "Polygon", "coordinates": [[[98.75807160819289, 17.783651482102513], [98.75466559563468, 17.804436023595375], [98.7421375890761, 17.833138973208467], [98.70983981261695, 17.833566325892264], [98.70232029147023, 17.800898030226502], [98.68434283589802, 17.783651482102513], [98.68837364634417, 17.756272103171444], [98.71307636093313, 17.743697709782772], [98.73671319470267, 17.750858560258802], [98.76017221829092, 17.75886614506421], [98.75807160819289, 17.783651482102513]]]}, "properties": {"region": "thailand", "time_step": 2110, "score": 0.624}}, {"type": "Feature", "geometry": {"type": "Polygon", "coordinates": [[[98.46485720842941, 17.82211056320619], [98.45673670904155, 17.858191688657012], [98.42009322617893, 17.862175619369538], [98.3903993438663, 17.87343387979126], [98.3692881628041, 17.84956452560912], [98.35830944123984, 17.82211056320619], [98.3787804427366, 17.80155314586195], [98.39628006571294, 17.78888624743523], [98.42028047035987, 17.781469228709746], [98.42978680726932, 17.805609687518462], [98.46485720842941, 17.82211056320619]]]}, "properties": {"region": "thailand", "time_step": 2412, "score": 0.497}}, {"type": "Feature", "geometry": {"type": "Polygon", "coordinates": [[[98.98886697013842, 17.553153356737393], [98.9942206774315, 17.577385365205874], [98.97550491637696, 17.598200602158], [98.95221456687399, 17.57978643655715], [98.92026428235268, 17.582653814511644], [98.92895108043983, 17.553153356737393], [98.92554260670777, 17.52748782608373], [98.95195641143607, 17.525725756176303], [98.9734415946625, 17.51445636258928], [98.98890419755598, 17.532783996997757], [98.98886697013842, 17.553153356737393]]]}, "properties": {"region": "thailand", "time_step": 2405, "score": 0.844}}, {"type": "Feature", "geometry": {"type": "MultiPolygon", "coordinates": [[[[99.53471711023852, 17.52356008143616], [99.5149601933949, 17.535941344603003], [99.50338840312492, 17.540393645448656], [99.48651170574357, 17.558667651116103], [99.48409544633375, 17.53360336962536], [99.48103171150852, 17.52356008143616], [99.48047410843726, 17.510885737256878], [99.48730049588534, 17.49088015818982], [99.50708135522221, 17.495360779550232], [99.51521073111009, 17.510996791964363], [99.53471711023852, 17.52356008143616]]], [[[99.42444182650459, 17.54848161658258], [99.40898725610731, 17.563923325912256], [99.394456732029, 17.56917339224953], [99.3802577260504, 17.571489887860224], [99.36401593995224, 17.565713480979944], [99.350679842368, 17.54848161658258], [99.36204868112159, 17.52982045498116], [99.37752570371728, 17.51706504514712], [99.39383884579117, 17.52969149921767], [99.40629353451394, 17.5349970105491], [99.42444182650459, 17.54848161658258]]]]}, "properties": {"region": "thailand", "time_step": 2310, "score": 0.8}}, {"type": "Feature", "geometry": {"type": "Polygon", "coordinates": [[[99.57957304468827, 17.875985329819954], [99.59180674079596, 17.906499632808256], [99.56514402947282, 17.923186603868757], [99.54032084797633, 17.90518195280319], [99.50542135505296, 17.90823368337208], [99.49213918101505, 17.875985329819954], [99.51043782221507, 17.847381653001438], [99.54010755654465, 17.846132263308814], [99.56911505882795, 17.81656248409925], [99.59448949742854, 17.843521890045785], [99.57957304468827, 17.875985329819954]]]}, "properties": {"region": "thailand", "time_step": 2411, "score": 0.619}}, {"type": "Feature", "geometry": {"type": "Polygon", "coordinates": [[[23.06381352123736, -1.1905225901664602], [23.032095127277334, -1.1724010358988026], [23.026203846064192, -1.1318899536332654], [22.991723421668777, -1.1430353921830623], [22.961127684774837, -1.1570832793522783], [22.954637320812274, -1.1905225901664602], [22.972591533308915, -1.2156329274860214], [22.99062977769848, -1.2413756781927696], [23.026256030003715, -1.249315832351222], [23.036892190651777, -1.2121294149851873], [23.06381352123736, -1.1905225901664602]]]}, "properties": {"region": "drc", "time_step": 2408, "score": 0.657}}, {"type": "Feature", "geometry": {"type": "Polygon", "coordinates": [[[23.334194737126168, -1.2779253543409297], [23.301623331151372, -1.260203620552915], [23.29540089011782, -1.222005589665751], [23.266164044813067, -1.243863361542729], [23.24181813130333, -1.2521960670434815], [23.22821049485153, -1.2779253543409297], [23.244317167670385, -1.3018389854386787], [23.26856005057765, -1.3046131996424888], [23.295059263782843, -1.33279370126908], [23.304398097904038, -1.297663074180051], [23.334194737126168, -1.2779253543409297]]]}, "properties": {"region": "drc", "time_step": 2306, "score": 0.565}}, {"type": "Feature", "geometry": {"type": "Polygon", "coordinates": [[[23.16103023481194, -0.5438711856937238], [23.142821347878037, -0.5239382456099643], [23.126425500229118, -0.5098951268946044], [23.102508317874598, -0.5042377261047191], [23.077335208233972, -0.5162256603311732], [23.079698660475394, -0.5438711856937238], [23.07964077841463, -0.5698416162687269], [23.099107301535796, -0.5939718972783173], [23.128728578824006, -0.5849353915691587], [23.137754039637798, -0.5601225108384367], [23.16103023481194, -0.5438711856937238]]]}, "properties": {"region": "drc", "time_step": 2412, "score": 0.544}}, {"type": "Feature", "geometry": {"type": "Polygon", "coordinates": [[[23.236166706786314, -1.1571754592067556], [23.247672910141517, -1.120179271253411], [23.211232823659284, -1.112608146387644], [23.184482542038197, -1.1194138706658527], [23.161658318725312, -1.1316783884672232], [23.158675521723428, -1.1571754592067556], [23.1681656497345, -1.1779446772243054], [23.180368175035554, -1.2075997673375887], [23.20861769881777, -1.193694245353487], [23.240275130459047, -1.1887968456079725], [23.236166706786314, -1.1571754592067556]]]}, "properties": {"region": "drc", "time_step": 2204, "score": 0.528}}, {"type": "Feature", "geometry": {"type": "Polygon", "coordinates": [[[23.026971164803307, -0.7304979986883381], [23.011154106677473, -0.7086175877542024], [22.990509548675416, -0.7013485068909001], [22.97052484965279, -0.6981409113084349], [22.95254098966524, -0.7097934874141313], [22.947544915693616, -0.7304979986883381], [22.958760502300873, -0.7466837695292926], [22.966738500487434, -0.7745082705604559], [22.992444776997836, -0.765603510834362], [23.031307994838194, -0.7670210664759004], [23.026971164803307, -0.7304979986883381]]]}, "properties": {"region": "drc", "time_step": 2211, "score": 0.912}}, {"type": "Feature", "geometry": {"type": "Polygon", "coordinates": [[[23.032996665678283, -0.5527363180017585], [23.02376108167953, -0.5275204620428867], [22.99945927137726, -0.5207135195399948], [22.980130504617502, -0.525271289213122], [22.93975356177613, -0.5169171380785529], [22.944811940193734, -0.5527363180017585], [22.943221342467456, -0.5860360077749214], [22.976240445853414, -0.5921737166072734], [22.998231204432873, -0.580979515046237], [23.029270470175984, -0.5819549790066071], [23.032996665678283, -0.5527363180017585]]]}, "properties": {"region": "drc", "time_step": null, "score": 0.488}}, {"type": "Feature", "geometry": {"type": "Polygon", "coordinates": [[[23.106703068292884, -1.2353973857893268], [23.119559245665034, -1.2033192768670298], [23.090511127456605, -1.1889132510008311], [23.058250215588, -1.1825926432255578], [23.04696256244459, -1.2147309169598388], [23.029549046767055, -1.2353973857893268], [23.040407999237047, -1.2608260235415933], [23.062125676509048, -1.2762746860774234], [23.093337925997563, -1.290581511910236], [23.126135979941527, -1.272253771858886], [23.106703068292884, -1.2353973857893268]]]}, "properties": {"region": "drc", "time_step": 2110, "score": 0.966}}, {"type": "Feature", "geometry": {"type": "Polygon", "coordinates": [[[22.55564411406452, -0.6847154747743497], [22.543312534236925, -0.6671097185908595], [22.530103178451963, -0.6507905116218748], [22.504581632777388, -0.6400931969609267], [22.49265145038385, -0.6655137990237334], [22.47733190873299, -0.6847154747743497], [22.47711720107884, -0.7152034432856922], [22.50549565233647, -0.7265246896381347], [22.527795569577957, -0.7115383480850641], [22.54934495631083, -0.7067040421414084], [22.55564411406452, -0.6847154747743497]]]}, "properties": {"region": "drc", "time_step": 2402, "score": 0.806}}]}